OBJECT_NAME,OBJECT_ID,EPOCH,MEAN_MOTION,ECCENTRICITY,INCLINATION,RA_OF_ASC_NODE,ARG_OF_PERICENTER,MEAN_ANOMALY,EPHEMERIS_TYPE,CLASSIFICATION_TYPE,NORAD_CAT_ID,ELEMENT_SET_NO,REV_AT_EPOCH,BSTAR,MEAN_MOTION_DOT,MEAN_MOTION_DDOT
FENGYUN 3D,2017-072A,2026-07-07T14:02:25.683936,14.19742396,.00019576,99.0142,163.3768,29.2055,330.9230,0,U,43010,999,44788,-.94729396E-4,-.247E-5,0
NOAA 20 (JPSS-1),2017-073A,2026-07-07T13:59:59.851968,14.19515459,.0001102,98.7773,127.8650,130.3198,229.8074,0,U,43013,999,44736,.43198074E-4,.47E-6,0
GOES 17,2018-022A,2026-07-07T13:19:15.862080,1.00271827,.00006103,0.9858,85.3868,61.4399,249.0168,0,U,43226,999,3062,0,-.168E-5,0
SENTINEL-3B,2018-039A,2026-07-07T04:14:28.025664,14.26740486,.00009635,98.6239,255.4214,118.9874,241.1403,0,U,43437,999,42697,.51893069E-4,.82E-6,0
FENGYUN 2H,2018-050A,2026-07-07T14:07:21.770688,1.00268540,.00020222,3.0805,78.8411,124.4991,13.2977,0,U,43491,999,2964,0,-.115E-5,0
METOP-C,2018-087A,2026-07-07T13:13:04.137312,14.21517621,.00021995,98.6634,247.7811,103.5340,256.6082,0,U,43689,999,39772,.52807471E-4,.72E-6,0
GEO-KOMPSAT-2A,2018-100A,2026-07-07T12:38:43.715904,1.00271041,.00023155,0.0411,146.2921,313.3360,143.8113,0,U,43823,999,2783,0,-.328E-5,0
METEOR-M2 2,2019-038A,2026-07-07T14:47:04.144416,14.24370427,.00011951,98.9160,176.2037,17.9829,342.1391,0,U,44387,999,36420,-.84836326E-4,-.242E-5,0
ARKTIKA-M 1,2021-016A,2026-07-06T22:19:47.601984,2.00615031,.72948481,63.2564,54.7781,270.0184,14.5557,0,U,47719,999,3918,0,-.246E-5,0
FENGYUN 3E,2021-062A,2026-07-07T13:35:56.620320,14.19906459,.00025388,98.7500,191.7475,51.9379,308.2026,0,U,49008,999,25947,.12944011E-3,.231E-5,0
GOES 18,2022-021A,2026-07-07T13:30:53.794368,1.00271393,.00005499,0.0038,164.6235,8.2423,178.3784,0,U,51850,999,679,0,.112E-5,0
NOAA 21 (JPSS-2),2022-150A,2026-07-07T13:05:11.061888,14.19540214,.00026295,98.7060,126.9925,118.0262,242.1180,0,U,54234,999,18943,.37485154E-4,.35E-6,0
METEOSAT-12 (MTG-I1),2022-170C,2026-07-07T13:44:43.420992,1.00266540,.00039716,0.7166,18.2897,82.3254,30.9040,0,U,54743,999,1318,0,.7E-7,0
TIANMU-1 03,2023-039A,2026-07-07T14:41:12.243264,15.47888783,.00032038,97.5246,3.3899,45.8967,314.2546,0,U,55973,999,18399,.19926899E-3,.10279E-3,0
TIANMU-1 04,2023-039B,2026-07-07T12:41:27.493152,15.48505001,.0003729,97.5180,2.4593,40.1297,320.0228,0,U,55974,999,18399,.20746346E-3,.10941E-3,0
TIANMU-1 05,2023-039C,2026-07-07T12:41:50.802144,15.47809951,.00035576,97.5226,2.9115,66.0907,294.0716,0,U,55975,999,18396,.20087283E-3,.10335E-3,0
TIANMU-1 06,2023-039D,2026-07-07T14:21:15.243840,15.48404120,.00037199,97.5232,3.6398,59.4813,300.6804,0,U,55976,999,18400,.20296368E-3,.10663E-3,0
FENGYUN 3G,2023-055A,2026-07-07T15:08:16.368864,15.53553025,.00072256,49.9916,240.6135,22.2508,337.8772,0,U,56232,999,18318,.23573981E-3,.14873E-3,0
METEOR-M2 3,2023-091A,2026-07-07T14:45:40.256928,14.24048528,.00051071,98.6077,243.1743,107.2489,252.9249,0,U,57166,999,15742,.10381656E-4,-.19E-6,0
TIANMU-1 07,2023-101A,2026-07-07T13:43:33.705696,15.30054824,.00041489,97.2582,238.7735,80.4145,279.7564,0,U,57399,999,16476,.15123954E-3,.4325E-4,0
TIANMU-1 08,2023-101B,2026-07-07T14:29:37.273632,15.30059325,.00052084,97.2570,238.5724,65.7670,294.4115,0,U,57400,999,16476,.15327913E-3,.4386E-4,0
TIANMU-1 09,2023-101C,2026-07-07T14:05:04.832736,15.30098044,.0004726,97.2528,237.9612,81.9612,278.2165,0,U,57401,999,16476,.1557688E-3,.4464E-4,0
TIANMU-1 10,2023-101D,2026-07-07T14:53:11.757408,15.30071506,.00061611,97.2608,239.0651,74.2502,285.9418,0,U,57402,999,16476,.15696896E-3,.4496E-4,0
FENGYUN 3F,2023-111A,2026-07-07T14:53:33.213120,14.19942611,.00014088,98.6829,258.2478,80.0083,280.1252,0,U,57490,999,15176,.27678407E-4,.15E-6,0
ARKTIKA-M 2,2023-198A,2026-07-06T16:49:25.410720,2.00609243,.6907948,63.2193,152.1833,267.3642,18.7597,0,U,58584,999,1871,0,.205E-5,0
TIANMU-1 11,2023-205A,2026-07-07T15:05:12.521760,15.27212096,.00068561,97.3446,209.8663,296.4362,63.6173,0,U,58645,999,14064,.14023823E-3,.3668E-4,0
TIANMU-1 12,2023-205B,2026-07-07T14:24:15.145920,15.27041885,.00054595,97.3434,209.5883,269.7638,90.2975,0,U,58646,999,14062,.15092556E-3,.3932E-4,0
TIANMU-1 13,2023-205C,2026-07-07T13:37:59.657376,15.27034051,.00051576,97.3462,209.8339,245.9105,114.1595,0,U,58647,999,14061,.1449426E-3,.3772E-4,0
TIANMU-1 14,2023-205D,2026-07-07T14:50:11.636736,15.27078708,.00058549,97.3399,209.0491,253.6556,106.4040,0,U,58648,999,14062,.14615675E-3,.381E-4,0
TIANMU-1 19,2023-208A,2026-07-07T14:29:42.253728,15.31895171,.00039019,97.4515,305.0140,228.8793,131.2112,0,U,58660,999,14045,.18985741E-3,.5768E-4,0
