FENGYUN 3D              
1 43010U 17072A   26188.58501949 -.00000247  00000+0 -94729-4 0  9990
2 43010  99.0142 163.3768 0001957  29.2055 330.9230 14.19742396447881
NOAA 20 (JPSS-1)        
1 43013U 17073A   26188.58333162  .00000047  00000+0  43198-4 0  9994
2 43013  98.7773 127.8650 0001102 130.3198 229.8074 14.19515459447362
GOES 17                 
1 43226U 18022A   26188.55504470 -.00000168  00000+0  00000+0 0  9999
2 43226   0.9858  85.3868 0000610  61.4399 249.0168  1.00271827 30625
SENTINEL-3B             
1 43437U 18039A   26188.17671326  .00000082  00000+0  51893-4 0  9999
2 43437  98.6239 255.4214 0000963 118.9874 241.1403 14.26740486426974
FENGYUN 2H              
1 43491U 18050A   26188.58844642 -.00000115  00000+0  00000+0 0  9997
2 43491   3.0805  78.8411 0002022 124.4991  13.2977  1.00268540 29640
METOP-C                 
1 43689U 18087A   26188.55074233  .00000072  00000+0  52807-4 0  9992
2 43689  98.6634 247.7811 0002199 103.5340 256.6082 14.21517621397722
GEO-KOMPSAT-2A          
1 43823U 18100A   26188.52689486 -.00000328  00000+0  00000+0 0  9995
2 43823   0.0411 146.2921 0002315 313.3360 143.8113  1.00271041 27830
METEOR-M2 2             
1 44387U 19038A   26188.61602019 -.00000242  00000+0 -84836-4 0  9999
2 44387  98.9160 176.2037 0001195  17.9829 342.1391 14.24370427364201
ARKTIKA-M 1             
1 47719U 21016A   26187.93041206 -.00000246  00000+0  00000+0 0  9998
2 47719  63.2564  54.7781 7294848 270.0184  14.5557  2.00615031 39188
FENGYUN 3E              
1 49008U 21062A   26188.56662755  .00000231  00000+0  12944-3 0  9997
2 49008  98.7500 191.7475 0002538  51.9379 308.2026 14.19906459259474
GOES 18                 
1 51850U 22021A   26188.56312262  .00000112  00000+0  00000+0 0  9990
2 51850   0.0038 164.6235 0000549   8.2423 178.3784  1.00271393  6792
NOAA 21 (JPSS-2)        
1 54234U 22150A   26188.54526692  .00000035  00000+0  37485-4 0  9990
2 54234  98.7060 126.9925 0002629 118.0262 242.1180 14.19540214189437
METEOSAT-12 (MTG-I1)    
1 54743U 22170C   26188.57272478  .00000007  00000+0  00000+0 0  9997
2 54743   0.7166  18.2897 0003971  82.3254  30.9040  1.00266540 13187
TIANMU-1 03             
1 55973U 23039A   26188.61194726  .00010279  00000+0  19927-3 0  9996
2 55973  97.5246   3.3899 0003203  45.8967 314.2546 15.47888783183997
TIANMU-1 04             
1 55974U 23039B   26188.52879043  .00010941  00000+0  20746-3 0  9996
2 55974  97.5180   2.4593 0003729  40.1297 320.0228 15.48505001183995
TIANMU-1 05             
1 55975U 23039C   26188.52906021  .00010335  00000+0  20087-3 0  9999
2 55975  97.5226   2.9115 0003557  66.0907 294.0716 15.47809951183965
TIANMU-1 06             
1 55976U 23039D   26188.59809310  .00010663  00000+0  20296-3 0  9996
2 55976  97.5232   3.6398 0003719  59.4813 300.6804 15.48404120184004
FENGYUN 3G              
1 56232U 23055A   26188.63074501  .00014873  00000+0  23574-3 0  9990
2 56232  49.9916 240.6135 0007225  22.2508 337.8772 15.53553025183186
METEOR-M2 3             
1 57166U 23091A   26188.61504927 -.00000019  00000+0  10382-4 0  9997
2 57166  98.6077 243.1743 0005107 107.2489 252.9249 14.24048528157422
TIANMU-1 07             
1 57399U 23101A   26188.57191789  .00004325  00000+0  15124-3 0  9991
2 57399  97.2582 238.7735 0004148  80.4145 279.7564 15.30054824164768
TIANMU-1 08             
1 57400U 23101B   26188.60390363  .00004386  00000+0  15328-3 0  9990
2 57400  97.2570 238.5724 0005208  65.7670 294.4115 15.30059325164768
TIANMU-1 09             
1 57401U 23101C   26188.58686149  .00004464  00000+0  15577-3 0  9991
2 57401  97.2528 237.9612 0004726  81.9612 278.2165 15.30098044164767
TIANMU-1 10             
1 57402U 23101D   26188.62027497  .00004496  00000+0  15697-3 0  9990
2 57402  97.2608 239.0651 0006161  74.2502 285.9418 15.30071506164761
FENGYUN 3F              
1 57490U 23111A   26188.62052330  .00000015  00000+0  27678-4 0  9998
2 57490  98.6829 258.2478 0001408  80.0083 280.1252 14.19942611151765
ARKTIKA-M 2             
1 58584U 23198A   26187.70098855  .00000205  00000+0  00000+0 0  9994
2 58584  63.2193 152.1833 6907948 267.3642  18.7597  2.00609243 18712
TIANMU-1 11             
1 58645U 23205A   26188.62861715  .00003668  00000+0  14024-3 0  9997
2 58645  97.3446 209.8663 0006856 296.4362  63.6173 15.27212096140640
TIANMU-1 12             
1 58646U 23205B   26188.60017530  .00003932  00000+0  15093-3 0  9995
2 58646  97.3434 209.5883 0005459 269.7638  90.2975 15.27041885140626
TIANMU-1 13             
1 58647U 23205C   26188.56805159  .00003772  00000+0  14494-3 0  9999
2 58647  97.3462 209.8339 0005157 245.9105 114.1595 15.27034051140617
TIANMU-1 14             
1 58648U 23205D   26188.61819024  .00003810  00000+0  14616-3 0  9991
2 58648  97.3399 209.0491 0005854 253.6556 106.4040 15.27078708140625
TIANMU-1 19             
1 58660U 23208A   26188.60396127  .00005768  00000+0  18986-3 0  9999
2 58660  97.4515 305.0140 0003901 228.8793 131.2112 15.31895171140459
